KUIPER-00016            
1 63732U 25088J   25228.91670139 -.00049853  00000+0 -57506-2 0  9994
2 63732  51.8963 297.1860 0012509 108.9222 341.8268 14.85313773 17001
KUIPER-00018            
1 63733U 25088K   25228.91670139 -.00006613  00000+0 -35697-3 0  9990
2 63733  51.8801 289.7761 0011155 118.7965 143.8318 15.12573336  4836
KUIPER-00019            
1 63734U 25088L   25228.91670139  .00000282  00000+0  31543-4 0  9992
2 63734  51.8760 288.6375 0007772 132.1353 327.2056 15.14730206  5427
KUIPER-00020            
1 63735U 25088M   25228.91670139 -.00046187  00000+0 -28245-2 0  9992
2 63735  51.8866 290.9115 0007860 122.5469 230.8499 15.09771225 17290
KUIPER-00021            
1 63736U 25088N   25228.91670139 -.00008435  00000+0 -52192-3 0  9996
2 63736  51.8777 291.6536 0007045 111.3225 297.5684 15.08117175 17123
KUIPER-00023            
1 63737U 25088P   25228.91670139 -.01488744  00000+0 -11347+0 0  9996
2 63737  51.8860 292.6255 0009953 125.0205 182.4003 15.05010327 17402
KUIPER-00024            
1 63738U 25088Q   25228.91670139  .00009944  00000+0  35955-3 0  9990
2 63738  51.8778 286.2379 0002871 119.5710  31.9895 15.29048350  5348
KUIPER-00025            
1 63739U 25088R   25228.91670139 -.00002135  00000+0 -10544-3 0  9995
2 63739  51.8836 289.9217 0009254 115.4163 354.5539 15.11973444  4445
